{
    "links": {
        "self": "http://www.neowsapp.com/rest/v1/neo/3785783?api_key=iIulBulltgU6a56xZRHN4H3l9WmuAYTsLGpBGhQ2"
    },
    "id": "3785783",
    "neo_reference_id": "3785783",
    "name": "(2017 TA5)",
    "designation": "2017 TA5",
    "nasa_jpl_url": "http://ssd.jpl.nasa.gov/sbdb.cgi?sstr=3785783",
    "absolute_magnitude_h": 27.2,
    "estimated_diameter": {
        "kilometers": {
            "estimated_diameter_min": 0.0096506147,
            "estimated_diameter_max": 0.0215794305
        },
        "meters": {
            "estimated_diameter_min": 9.6506146958,
            "estimated_diameter_max": 21.5794304844
        },
        "miles": {
            "estimated_diameter_min": 0.0059966121,
            "estimated_diameter_max": 0.0134088323
        },
        "feet": {
            "estimated_diameter_min": 31.6621227185,
            "estimated_diameter_max": 70.7986587106
        }
    },
    "is_potentially_hazardous_asteroid": false,
    "close_approach_data": [
        {
            "close_approach_date": "1981-11-05",
            "close_approach_date_full": "1981-Nov-05 04:35",
            "epoch_date_close_approach": 373782900000,
            "relative_velocity": {
                "kilometers_per_second": "22.3731320493",
                "kilometers_per_hour": "80543.2753775009",
                "miles_per_hour": "50046.4590810921"
            },
            "miss_distance": {
                "astronomical": "0.4073766173",
                "lunar": "158.4695041297",
                "kilometers": "60942674.235885151",
                "miles": "37868021.8066750438"
            },
            "orbiting_body": "Earth"
        },
        {
            "close_approach_date": "2017-10-09",
            "close_approach_date_full": "2017-Oct-09 14:02",
            "epoch_date_close_approach": 1507557720000,
            "relative_velocity": {
                "kilometers_per_second": "11.2571217932",
                "kilometers_per_hour": "40525.6384555222",
                "miles_per_hour": "25181.0557392104"
            },
            "miss_distance": {
                "astronomical": "0.0192282873",
                "lunar": "7.4798037597",
                "kilometers": "2876510.823828051",
                "miles": "1787380.9439710638"
            },
            "orbiting_body": "Earth"
        }
    ],
    "orbital_data": {
        "orbit_id": "1",
        "orbit_determination_date": "2017-10-15 18:12:15",
        "first_observation_date": "2017-10-13",
        "last_observation_date": "2017-10-15",
        "data_arc_in_days": 2,
        "observations_used": 17,
        "orbit_uncertainty": "8",
        "minimum_orbit_intersection": ".00251036",
        "jupiter_tisserand_invariant": "3.912",
        "epoch_osculation": "2458040.5",
        "eccentricity": ".4834388392424033",
        "semi_major_axis": "1.797692084463097",
        "inclination": "8.405260892128013",
        "ascending_node_longitude": "14.60218089056448",
        "orbital_period": "880.3824694375716",
        "perihelion_distance": ".9286179098350011",
        "perihelion_argument": "320.3121369040215",
        "aphelion_distance": "2.666766259091193",
        "perihelion_time": "2458004.332264360009",
        "mean_anomaly": "14.78946399138862",
        "mean_motion": ".4089131854590248",
        "equinox": "J2000",
        "orbit_class": {
            "orbit_class_type": "APO",
            "orbit_class_description": "Near-Earth asteroid orbits which cross the Earth’s orbit similar to that of 1862 Apollo",
            "orbit_class_range": "a (semi-major axis) > 1.0 AU; q (perihelion) < 1.017 AU"
        }
    },
    "is_sentry_object": false
}